[{"OBJECT_NAME":"STARLINK-5906","OBJECT_ID":"2023-037BA","EPOCH":"2026-03-09T21:59:01.733856","MEAN_MOTION":14.98328179,"ECCENTRICITY":0.00026796,"INCLINATION":69.9984,"RA_OF_ASC_NODE":264.0177,"ARG_OF_PERICENTER":261.8106,"MEAN_ANOMALY":98.2749,"EPHEMERIS_TYPE":0,"CLASSIFICATION_TYPE":"U","NORAD_CAT_ID":55962,"ELEMENT_SET_NO":999,"REV_AT_EPOCH":16450,"BSTAR":-1.06104e-6,"MEAN_MOTION_DOT":-1.06e-6,"MEAN_MOTION_DDOT":0},{"OBJECT_NAME":"CZ-2D R\/B","OBJECT_ID":"2010-027B","EPOCH":"2026-03-09T19:01:31.304352","MEAN_MOTION":15.02332282,"ECCENTRICITY":0.00475082,"INCLINATION":97.9913,"RA_OF_ASC_NODE":95.0303,"ARG_OF_PERICENTER":252.3591,"MEAN_ANOMALY":107.2442,"EPHEMERIS_TYPE":0,"CLASSIFICATION_TYPE":"U","NORAD_CAT_ID":36597,"ELEMENT_SET_NO":999,"REV_AT_EPOCH":85595,"BSTAR":0.00022535675,"MEAN_MOTION_DOT":2.983e-5,"MEAN_MOTION_DDOT":0}]
